SUOMI-100               
1 43804U 18099AY  26068.68271181  .00014037  00000+0  54773-3 0  9995
2 43804  97.4315 129.5602 0008969 269.9465  90.0745 15.25995383398238
STARLINK-30966          
1 58454U 23183T   26068.28514043  .00001471  00000+0  62947-4 0  9996
2 58454  43.0015  43.7959 0001602 275.5141  84.5528 15.27588736126678
